{"type": "FeatureCollection", "features": [ {"type": "Feature", "properties": {"norad_id": 32171, "name": "FENGYUN 1C DEB", "group": "fengyun-1c-debris", "lat": 77.04714613847078, "lon": 139.66859667073993, "alt_km": 992.4726641272746, "timestamp": "2025-12-08T10:52:03.233406+00:00", "meta": {"OBJECT_NAME": "FENGYUN 1C DEB", "OBJECT_ID": "1999-025CTR", "EPOCH": "2025-12-03T23:12:12.508416", "MEAN_MOTION": 13.4243602, "ECCENTRICITY": 0.04879299, "INCLINATION": 102.8037, "RA_OF_ASC_NODE": 232.6035, "ARG_OF_PERICENTER": 24.8358, "MEAN_ANOMALY": 350.9132, "EPHEMERIS_TYPE": 0, "CLASSIFICATION_TYPE": "U", "NORAD_CAT_ID": 32171, "ELEMENT_SET_NO": 999, "REV_AT_EPOCH": 60498, "BSTAR": 0.0080316463, "MEAN_MOTION_DOT": 9.177e-05, "MEAN_MOTION_DDOT": 0}, "tle": {"line1": "1 32171U 99025CTR 25337.96681144  .00009177  00000+0  80316-2 0  9991", "line2": "2 32171 102.8037 232.6035 0487929  24.8358 350.9132 13.42436020604982"}}, "geometry": {"type": "Point", "coordinates": [139.66859667073993, 77.04714613847078]}}, {"type": "Feature", "properties": {"norad_id": 32174, "name": "FENGYUN 1C DEB", "group": "fengyun-1c-debris", "lat": -51.06314755768683, "lon": -146.0660571419004, "alt_km": 742.006786215662, "timestamp": "2025-12-08T10:52:03.233416+00:00", "meta": {"OBJECT_NAME": "FENGYUN 1C DEB", "OBJECT_ID": "1999-025CTU", "EPOCH": "2025-12-07T10:03:20.859552", "MEAN_MOTION": 14.17908132, "ECCENTRICITY": 0.0150306, "INCLINATION": 98.6008, "RA_OF_ASC_NODE": 43.7286, "ARG_OF_PERICENTER": 261.2941, "MEAN_ANOMALY": 97.1185, "EPHEMERIS_TYPE": 0, "CLASSIFICATION_TYPE": "U", "NORAD_CAT_ID": 32174, "ELEMENT_SET_NO": 999, "REV_AT_EPOCH": 64030, "BSTAR": 0.00050540608, "MEAN_MOTION_DOT": 1.111e-05, "MEAN_MOTION_DDOT": 0}, "tle": {"line1": "1 32174U 99025CTU 25341.41899143  .00001111  00000+0  50541-3 0  9997", "line2": "2 32174  98.6008  43.7286 0150306 261.2941  97.1185 14.17908132640300"}}, "geometry": {"type": "Point", "coordinates": [-146.0660571419004, -51.06314755768683]}}, {"type": "Feature", "properties": {"norad_id": 32175, "name": "FENGYUN 1C DEB", "group": "fengyun-1c-debris", "lat": 59.505067783226856, "lon": 166.49482732677714, "alt_km": 996.181564352316, "timestamp": "2025-12-08T10:52:03.233427+00:00", "meta": {"OBJECT_NAME": "FENGYUN 1C DEB", "OBJECT_ID": "1999-025CTV", "EPOCH": "2025-12-07T05:01:51.104928", "MEAN_MOTION": 13.9473542, "ECCENTRICITY": 0.01526008, "INCLINATION": 98.8235, "RA_OF_ASC_NODE": 330.0136, "ARG_OF_PERICENTER": 338.2032, "MEAN_ANOMALY": 21.2683, "EPHEMERIS_TYPE": 0, "CLASSIFICATION_TYPE": "U", "NORAD_CAT_ID": 32175, "ELEMENT_SET_NO": 999, "REV_AT_EPOCH": 59763, "BSTAR": 0.0045384397, "MEAN_MOTION_DOT": 6.661e-05, "MEAN_MOTION_DDOT": 0}, "tle": {"line1": "1 32175U 99025CTV 25341.20961927  .00006661  00000+0  45384-2 0  9998", "line2": "2 32175  98.8235 330.0136 0152600 338.2032  21.2683 13.94735420597636"}}, "geometry": {"type": "Point", "coordinates": [166.49482732677714, 59.505067783226856]}}, {"type": "Feature", "properties": {"norad_id": 32177, "name": "FENGYUN 1C DEB", "group": "fengyun-1c-debris", "lat": 25.372895210642778, "lon": -12.934037955165653, "alt_km": 673.4698613940327, "timestamp": "2025-12-08T10:52:03.233437+00:00", "meta": {"OBJECT_NAME": "FENGYUN 1C DEB", "OBJECT_ID": "1999-025CTX", "EPOCH": "2025-12-07T18:15:33.348096", "MEAN_MOTION": 14.56128572, "ECCENTRICITY": 0.00521393, "INCLINATION": 99.044, "RA_OF_ASC_NODE": 350.6485, "ARG_OF_PERICENTER": 59.9632, "MEAN_ANOMALY": 300.6721, "EPHEMERIS_TYPE": 0, "CLASSIFICATION_TYPE": "U", "NORAD_CAT_ID": 32177, "ELEMENT_SET_NO": 999, "REV_AT_EPOCH": 70966, "BSTAR": 0.0024462544, "MEAN_MOTION_DOT": 0.00010955, "MEAN_MOTION_DDOT": 0}, "tle": {"line1": "1 32177U 99025CTX 25341.76080264  .00010955  00000+0  24463-2 0  9993", "line2": "2 32177  99.0440 350.6485 0052139  59.9632 300.6721 14.56128572709661"}}, "geometry": {"type": "Point", "coordinates": [-12.934037955165653, 25.372895210642778]}}, {"type": "Feature", "properties": {"norad_id": 32178, "name": "FENGYUN 1C DEB", "group": "fengyun-1c-debris", "lat": 30.45370264892947, "lon": -22.977255090890246, "alt_km": 774.9967507238371, "timestamp": "2025-12-08T10:52:03.233448+00:00", "meta": {"OBJECT_NAME": "FENGYUN 1C DEB", "OBJECT_ID": "1999-025CTY", "EPOCH": "2025-12-07T17:50:56.721120", "MEAN_MOTION": 14.22943585, "ECCENTRICITY": 0.00947686, "INCLINATION": 100.3035, "RA_OF_ASC_NODE": 342.3342, "ARG_OF_PERICENTER": 337.1658, "MEAN_ANOMALY": 22.5314, "EPHEMERIS_TYPE": 0, "CLASSIFICATION_TYPE": "U", "NORAD_CAT_ID": 32178, "ELEMENT_SET_NO": 999, "REV_AT_EPOCH": 63932, "BSTAR": 0.0022460255, "MEAN_MOTION_DOT": 5.238e-05, "MEAN_MOTION_DDOT": 0}, "tle": {"line1": "1 32178U 99025CTY 25341.74371205  .00005238  00000+0  22460-2 0  9993", "line2": "2 32178 100.3035 342.3342 0094768 337.1658  22.5314 14.22943585639326"}}, "geometry": {"type": "Point", "coordinates": [-22.977255090890246, 30.45370264892947]}}, {"type": "Feature", "properties": {"norad_id": 32179, "name": "FENGYUN 1C DEB", "group": "fengyun-1c-debris", "lat": -14.856928607556885, "lon": 33.75325844269135, "alt_km": 969.5011789565442, "timestamp": "2025-12-08T10:52:03.233458+00:00", "meta": {"OBJECT_NAME": "FENGYUN 1C DEB", "OBJECT_ID": "1999-025CTZ", "EPOCH": "2025-12-07T09:20:45.955392", "MEAN_MOTION": 14.03676641, "ECCENTRICITY": 0.01449803, "INCLINATION": 98.9107, "RA_OF_ASC_NODE": 30.3257, "ARG_OF_PERICENTER": 204.7708, "MEAN_ANOMALY": 168.6795, "EPHEMERIS_TYPE": 0, "CLASSIFICATION_TYPE": "U", "NORAD_CAT_ID": 32179, "ELEMENT_SET_NO": 999, "REV_AT_EPOCH": 65653, "BSTAR": 0.00018713959, "MEAN_MOTION_DOT": 2.79e-06, "MEAN_MOTION_DDOT": 0}, "tle": {"line1": "1 32179U 99025CTZ 25341.38942078  .00000279  00000+0  18714-3 0  9994", "line2": "2 32179  98.9107  30.3257 0144980 204.7708 168.6795 14.03676641656537"}}, "geometry": {"type": "Point", "coordinates": [33.75325844269135, -14.856928607556885]}}, {"type": "Feature", "properties": {"norad_id": 32180, "name": "FENGYUN 1C DEB", "group": "fengyun-1c-debris", "lat": -53.73826875854881, "lon": -170.8169156652245, "alt_km": 865.1723445944381, "timestamp": "2025-12-08T10:52:03.233469+00:00", "meta": {"OBJECT_NAME": "FENGYUN 1C DEB", "OBJECT_ID": "1999-025CUA", "EPOCH": "2025-12-07T20:42:16.709760", "MEAN_MOTION": 13.82325784, "ECCENTRICITY": 0.01361772, "INCLINATION": 99.5864, "RA_OF_ASC_NODE": 21.9027, "ARG_OF_PERICENTER": 223.3428, "MEAN_ANOMALY": 315.9857, "EPHEMERIS_TYPE": 0, "CLASSIFICATION_TYPE": "U", "NORAD_CAT_ID": 32180, "ELEMENT_SET_NO": 999, "REV_AT_EPOCH": 94200, "BSTAR": 0.00016713604, "MEAN_MOTION_DOT": 1.47e-06, "MEAN_MOTION_DDOT": 0}, "tle": {"line1": "1 32180U 99025CUA 25341.86269340  .00000147  00000+0  16714-3 0  9995", "line2": "2 32180  99.5864  21.9027 0136177 223.3428 315.9857 13.82325784942003"}}, "geometry": {"type": "Point", "coordinates": [-170.8169156652245, -53.73826875854881]}}, {"type": "Feature", "properties": {"norad_id": 32181, "name": "FENGYUN 1C DEB", "group": "fengyun-1c-debris", "lat": 71.01923075583336, "lon": -65.29685342052204, "alt_km": 647.3985092367893, "timestamp": "2025-12-08T10:52:03.233480+00:00", "meta": {"OBJECT_NAME": "FENGYUN 1C DEB", "OBJECT_ID": "1999-025CUB", "EPOCH": "2025-12-07T03:35:21.056064", "MEAN_MOTION": 14.55978002, "ECCENTRICITY": 0.00739327, "INCLINATION": 99.4736, "RA_OF_ASC_NODE": 84.1819, "ARG_OF_PERICENTER": 101.9063, "MEAN_ANOMALY": 17.2028, "EPHEMERIS_TYPE": 0, "CLASSIFICATION_TYPE": "U", "NORAD_CAT_ID": 32181, "ELEMENT_SET_NO": 999, "REV_AT_EPOCH": 96639, "BSTAR": 0.001703453, "MEAN_MOTION_DOT": 7.721e-05, "MEAN_MOTION_DDOT": 0}, "tle": {"line1": "1 32181U 99025CUB 25341.14954926  .00007721  00000+0  17035-2 0  9999", "line2": "2 32181  99.4736  84.1819 0073932 101.9063  17.2028 14.55978002966394"}}, "geometry": {"type": "Point", "coordinates": [-65.29685342052204, 71.01923075583336]}}, {"type": "Feature", "properties": {"norad_id": 32183, "name": "FENGYUN 1C DEB", "group": "fengyun-1c-debris", "lat": -81.0556948196685, "lon": 136.78151822104743, "alt_km": 896.3203707550038, "timestamp": "2025-12-08T10:52:03.233490+00:00", "meta": {"OBJECT_NAME": "FENGYUN 1C DEB", "OBJECT_ID": "1999-025CUD", "EPOCH": "2025-12-07T21:40:51.669120", "MEAN_MOTION": 14.10067553, "ECCENTRICITY": 0.00427535, "INCLINATION": 98.7135, "RA_OF_ASC_NODE": 33.2576, "ARG_OF_PERICENTER": 74.3542, "MEAN_ANOMALY": 286.234, "EPHEMERIS_TYPE": 0, "CLASSIFICATION_TYPE": "U", "NORAD_CAT_ID": 32183, "ELEMENT_SET_NO": 999, "REV_AT_EPOCH": 72696, "BSTAR": 0.00096374459, "MEAN_MOTION_DOT": 1.675e-05, "MEAN_MOTION_DDOT": 0}, "tle": {"line1": "1 32183U 99025CUD 25341.90337580  .00001675  00000+0  96374-3 0  9992", "line2": "2 32183  98.7135  33.2576 0042753  74.3542 286.2340 14.10067553726961"}}, "geometry": {"type": "Point", "coordinates": [136.78151822104743, -81.0556948196685]}}, {"type": "Feature", "properties": {"norad_id": 32184, "name": "FENGYUN 1C DEB", "group": "fengyun-1c-debris", "lat": -27.466575845145496, "lon": -62.964994948145986, "alt_km": 487.67787157321254, "timestamp": "2025-12-08T10:52:03.233500+00:00", "meta": {"OBJECT_NAME": "FENGYUN 1C DEB", "OBJECT_ID": "1999-025CUE", "EPOCH": "2025-12-07T13:44:05.231328", "MEAN_MOTION": 15.42817109, "ECCENTRICITY": 0.00719409, "INCLINATION": 98.1194, "RA_OF_ASC_NODE": 120.3103, "ARG_OF_PERICENTER": 6.6658, "MEAN_ANOMALY": 353.5527, "EPHEMERIS_TYPE": 0, "CLASSIFICATION_TYPE": "U", "NORAD_CAT_ID": 32184, "ELEMENT_SET_NO": 999, "REV_AT_EPOCH": 98324, "BSTAR": 0.0022380305, "MEAN_MOTION_DOT": 0.00108978, "MEAN_MOTION_DDOT": 0}, "tle": {"line1": "1 32184U 99025CUE 25341.57228277  .00108978  00000+0  22380-2 0  9997", "line2": "2 32184  98.1194 120.3103 0071940   6.6658 353.5527 15.42817109983248"}}, "geometry": {"type": "Point", "coordinates": [-62.964994948145986, -27.466575845145496]}}]}